Id,Name,Address,Contact_no,Email_ID,Lattitude,Longitude
1,Civil Surgeon General Hospital Blood Bank,"District Government Hospital Tarakpur Savedi Road, Ahmednagar,Ahmednagar-414001,AHMEDNAGAR,Maharashtra",917213222303,bloodbankcha37@gmail.com,19.108046,74.73557
2,Arpan Blood Bank,"First Floor, H.No.1542/43, Above Bank of Badoda, Swatantrya Chowk, Sangamner,  Ahmednagar District
,Ahmednagar-422605,AHMEDNAGAR,Maharashtra",918890997280,nandkishor@arpanbloodbank.org,19.569309,74.206528
3,Jankalyan Blood Bank Nalegaon,"Gadgil Patangan, Nalegaon, Ahmednagar

,Ahmednagar-414001,AHMEDNAGAR,Maharashtra",917737481334,jankalyanbloodbanknagar@rediffmail.com,18.501067,73.857499
4,Nandkishor Education Society - Arpan Blood Bank,"2nd  Floor, Sahakar Kranti Building, Market Yard, Nagar - Pune Road 
,Ahmednagar-414001,AHMEDNAGAR,Maharashtra",918346558022,"nandkishor@arpanbloodbank.org,",20.004874,73.787165
5,"Poonam Janjagruti Sanstha Sanchit, Ashtavinayak Blood Bank","Ashtavinayak Blood Bank, Ahmednagar  1st Floor, Sai Palace Opposite  to Akashwani Kendra, Near Professsor Coloney Chowk, Ahmednagar
,Ahmednagar-414003,AHMEDNAGAR,Maharashtra",919393722822,ashtavinayakbloodbank@gmail.com,19.117005,74.735872
6,Civil Surgeon General Hospital Blood Bank,"District General Hospital Compound, Z.P. Road, Akola
,Akola-444001,AKOLA,Maharashtra",918455289434,bloodbankgmcakola@gmail.com,20.702666,77.001984
7,District Hospital for Women Blood Bank,"Plot No.2, OPD Building, District Hospital for Women, Near Durga Chowk, Akola-444005
,Akola-444001,AKOLA,Maharashtra",919361219471,dhw_akola@rediffmail.com,20.714492,77.008904
8,Akola Diagnostic Centre Blood Bank and Component Lab,"Shivshirsh, Opposite to Gajanan Hospital, Ramnagar, Akola
,Akola-444001,AKOLA,Maharashtra",917329122647,akoladiagnostic@rediffmail.com,20.70644,77.011207
9,ICON Blood Bank - Ganediwal Charitable Trust,"Ganediwal Charitable Trust, ICON Blood Bank, ICON Hospital, Kedia Plot, Akola,Akola-444 001,AKOLA,Maharashtra",918863072576,iconakola@rediffmail.com,20.713446,77.011958
10,District General Hospital Blood Bank Amravati,"Dr. Babasaheb Ambedkar Chowk, District General Hospital Blood Bank, Amaravati,Amravati-444601,AMRAVATI,Maharashtra",918356610580,cs_amravati@rediffmail.com,20.93386,77.760815
11,Shri Balaji Blood Bank & component lab Amravati,"1st Floor, Alsi Complex, Ambapeth, Amravati
,Amravati-444601,AMRAVATI,Maharashtra",918924868982,"drckdara@yahoo.com,",20.928177,77.756362
12,Dr. P.D.M.H.C. Hospital and Research Centre Blood Bank,"Block-A,1st Floor, Shivaji Nagar, Amravati 
,Amravati-440603,AMRAVATI,Maharashtra",919506069123,sandippatil@gmail.com,20.923,77.816645
13,Sant Gadgebaba Blood Bank and Component Centre Badnera,"Opposite to Shrihari Hospital, Juni Vasti (Old Town), Badnera  Amravati
,Amravati-444701,AMRAVATI,Maharashtra",918843260401,sopanblood@gmail.com,20.794116,77.709547
14,Dr. Late Sadanadaji Burma Memorial Blood Bank,"Plot No- 53, Sheet No-20c, Gvalipura,  Sadar Bazar, Paratwada, Amravati
,Amravati-444805,AMRAVATI,Maharashtra",917784046446,rsburma@yahoo.co.in,21.298921,77.518316
15,Regional Blood Bank Government Medical College and Hospital,"Regional Blood Bank Government Medical College and Hospital, Aurangabad, (GHATI),Aurangabad-431001,AURANGABAD,Maharashtra",919557057486,bbgmchabad@gmail.com,19.890542,75.317164
16,Mahatma Gandhi Mishan (MGM) Hospital Blood Bank,"Mahatma Gandhi Mishan Medical College & Hospital Blood Bank, N-6, Town Center,  CIDCO,  Aurangabad ,Aurangabad-431003,AURANGABAD,Maharashtra",919227021885,drcpbhale@rediffmail.com,19.877896,75.354519
17,Dattaji Bhale Blood Bank - Hedgewar Hospital,"C/o. Dr. Hegdewar Rugnalaya Campus, Near Gajanan Mandir, Jawahar Colony Road, Garkheda Parisar,  Aurangabad
,Aurangabad-431005,AURANGABAD,Maharashtra",917984499969,mahendrasingh-chauhan@hedgewar.org,19.876165,75.343313
18,Lokmanya Blood Bank,"Gopinath Chember,  Basement Floor, Behind Jaydev Travels, Adalat Road,  Aurangabad ,Aurangabad-431005,AURANGABAD,Maharashtra",917456039809,adm.lokmanya@gmail.com,19.872123,75.323251
19,Seth Nandlal Dhoot Hospital Blood Bank,"Plot No A-1, MIDC Chikalthana, Jalna Road, Aurangabad
,Aurangabad-431210,AURANGABAD,Maharashtra",919871459860, bloodbank@dhoothospital.com,19.872742,75.387668
20,Arpan Voluntary (Marathwada)  Blood Bank,"2nd Floor, Soniya Chambers, Near Uddhanpula, Seven Hills, Jalna Road, Aurangabad
,Aurangabad-431001,AURANGABAD,Maharashtra",919769689650,nandkishor@arpanbloodbank.org,19.875504,75.352445
21,Amruta Blood Bank,"Shop No- 102/103, 1st Floor ,Nano Comlex Near Shanoormiya Arga, Vegetable Arket, Shahnoorwadi, Aurangabad
,Aurangabad-431001,AURANGABAD,Maharashtra",919913631836,amrutabloodbank@gmail.com,19.855842,75.338268
22,Aurangabad Blood Bank,"Opposite to Sparsh Hospital, Jawahar Nagar Akashwani Aurangabad
,Aurangabad-431001,AURANGABAD,Maharashtra",918699616119,aurangabadbloodbank@gmail.com,19.873384,75.344972
23,Lions Blood Bank,"1st Floor, above Lions  Balsadan, Near Teg Bahadur English School, Osmanpura, Aurangabad ,Aurangabad-431005,AURANGABAD,Maharashtra",918947338728,lionsbloodbank0708@gmail.com,19.87244,75.323188
24,Civil Surgeon General Hospital Blood Bank,"Civil Surgeon District General Hospital, Barshi Road, Beed  ,Beed-431122,BEED,Maharashtra",918471909923,bloodbankbeed@rediffmail.com,18.986918,75.75332
25,Swami Ramanand Tirth Arben Medical College Hospital Blood Bank,"Swami Ramanand Tirth Arben Medical College Hospital Ambajogai Tq. Ambajogai,  Beed,Beed-431517,BEED,Maharashtra",917738305858,srtrgmcbb@gmail.com,18.731377,76.370902
26,Arpan Blood Bank Beed,"3rd Floor, Thorat Multispeciality Hospital, D.P. Road, Anand Nagar, Ambejogai, Dist - Beed,
,Beed-431517,BEED,Maharashtra",917833719540,nandkishor@arpanbloodbank.org,18.725503,76.390737
27,Civil Hospital Bhandara Blood Bank,"General Hospital Blood Bank, Bhandara
,Bhandara-441904,BHANDARA,Maharashtra",919835538893,bloodbank_bhandara@rediffmail.com,21.162022,79.65973
28,Jeevandhara Buldana Urban Blood Bank,"1st Floor, DSD City Mall, Above Bank of India, Tehsil to Stadium Road, Buldhana 
,Buldana-443001,BULDHANA,Maharashtra",919612262394,maheshbhakkad@gmail.com,20.532707,76.180604
29,Government Hospital Blood Bank,"General Hospital Shegaon Road, Khamgaon, Buldhana,Buldhana-444303,BULDHANA,Maharashtra",918708933088,"ghkbb134@gmail.com, ms_ghkhamgaon@rediffmail.com",20.708409,76.566704
30,Civil Surgeon District General Hospital Blood Bank,"General Hospital Blood Bank Buldhana, Near Prabadhan School, Bhonde Sarakar Chauk Bhuldhana(M.S),Buldhana-443001,BULDHANA,Maharashtra",919596267665,cs_buldhana@rediffmail.com,20.533583,76.187482
31,Dr. Murlidhar Kharche Memorial Jeevan Jyoti Blood Bank,"Bharat Kala Road, Malkapur, Buldhana ,Buldhana-443101,BULDHANA,Maharashtra",918287838407,jkpatho@gmail.com,20.886486,76.207174
32,General Hospital Blood Bank,"Government General Hospital Blood Bank, Near Chota Bazar, Main Road, Mahatma Gandhi Marg, Chandrapur,Chandrapur-442402,CHANDRAPUR,Maharashtra",919914695404,bbchandrapur@gmail.com,19.953683,79.296742
33,Ankur Hospital Blood Bank,"Balaji Ward, Chandrapur,Chandrapur-442402,CHANDRAPUR,Maharashtra",919703069929,ankurhospital@rediffmail.com,19.970044,79.30788
34,Christanand Education Society Blood Bank,"Christanand Education Society Blood Bank,  Christanand Hospital, Gujri Ward No.2, Brahmapuri,Chandrapur-441206,CHANDRAPUR,Maharashtra",918922269109,christanandhosp@gmail.com,20.607715,79.855757
35,Shri Bhausaheb Hire Government Medical College and Hospital Blood Bank,"Civil Hospital Compound, Sakri Road Dhule,Dhule-424001,DHULE,Maharashtra",918334428621,bloodbankdhule@gmail.com,20.863814,74.761869
36,Jawahar Medical Foundation Blood Bank,"Hutatma Shririshkumar Nagar, Opposite to Jawahar Suthgirani, Morane, Sakri Road, Dhule,Dhule-424001,DHULE,Maharashtra",919142864198,acpm@rediffmail.com,20.90361,74.741293
37,Jeevan Jyoti Blood Bank,"3252 Agra Road, Near Prabhakar Theater,Dhule-424001,DHULE,Maharashtra",918113732780,bb_jyoti@yahoo.com,20.897883,74.775354
38,Nirnay Janseva Blood Bank,"Fulwala Chowk, (C.S.No.1415/A/1/A) Lane No. 4  Dr. Odhekar Building, Agra Road,Dhule-424001,DHULE,Maharashtra",919372956297,nirnayjansevabloodbank@gmail.com,20.904116,74.77767
39, Late  Shri Mukeshbai Patel Blood Bank ,"Shree Swami  Samartha Vaidyakiya  Shaikshanik and Sanshodhan Sanstha, Late  Shri Mukeshbai Patel Blood Bank, 1st Floor, Agrasen  Patpedhi, Maharaja Complex  Shirpur, Dhule ,Dhule-424001,DHULE,Maharashtra",918989847709, bb_shirpur@yahoo.com,21.458578,74.961094
40,Sub-District Rural Hospital Blood Bank,"Aheri, At Post and Tal., Aheri, Gadchiroli,Gadchiroli-442705,GADCHIROLI,Maharashtra",917169129334,ms.sdhaheri@gmail.com,19.414671,80.003753
41,Civil Surgeon - General Hospital Blood Bank,"Gadchiroli, General Hospital Blood Bank, Gadchiroli,Gadchiroli-442605,GADCHIROLI,Maharashtra",919603705211,bloodbankgadchiroli@gmail.com,20.170208,79.982909
42,Bai Gangabai Ladies Hospital Blood Bank,"Gondia, Bai Gangabai Ladies Hospital Blood Bank, Civil Lines,  Gondia,Gondia-441601,GONDIA,Maharashtra",918701393746,msbgwhgondia@gmail.com,21.459648,80.196834
43,Civil Surgeon - District General Hospital Blood Bank,"Akola Road Risala Bazar, Hingoli,Hingoli-431513,HINGOLI,Maharashtra",918966435978,Bloodbankhingoli@gmail.com,19.721787,77.154487
44,Jeevan Surabhi Blood Bank,"Kargaon Road, Laxmi nagar,  Chalisgaon, Jalgaon,Jalgaon-424101,JALGAON,Maharashtra",918687421111,jsbb@live.in,20.464642,74.998859
45,Dhanwantri Blood Bank,"H. No. 5/464/1, T. P. Scheme, No-1, Survey No 124/1/3A Plot No. 777/3, Jamner Road, Rangoli Hotel, Jawal Anand Nagar Bhusawal, Jalgaon ,Jalgaon-425201,JALGAON,Maharashtra",918611420400,bloodbank308@yahoo.com,21.034297,75.781029
46,Indian Red Cross Society Blood Bank,"Near Civil Hospital, Athwadi Bazar, Opposite to B.J.Market, Jalgaon,Jalgaon-425001,JALGAON,Maharashtra",917317638013,ircs_jal@yahoo.in,21.011122,75.567945
47,M/s. Jalgaon Blood Bank and Component,"Near Mahesh Pragati Bhavan, Ring Road, Jalgaon,Jalgaon-425002,JALGAON,Maharashtra",918898642615,jalgaon.bb@gmail.com,21.00408,75.493766
48,Jankalyan Blood Bank,"Wing No. 03, S. No. 224, Shri Chatrapati Shivaji Maharaj Bazar Sankul, Old Cotton Market Yard,Jalna-431203,JALNA,Maharashtra",918102002805,jalnajankalyan@gmail.com,19.867491,75.879779
49,Noor Hospital Blood Bank,"Aurangabad - Jalna Road, Warudi, Tq- Badnapur, Jalna,Jalna-431202,JALNA,Maharashtra",919316446866,"iimsk11@gmail.com, iimsr11@gmail.",19.860878,75.664447
50,Rajashri Chatrapati Shahu Maharaj Government Medical College and Chatrapati Pramilaraje General Hospital Blood Bank,"Dasara Chowk, Somwar Peth, C. P. R. Hospital Compound, Kolhapur
,Kolhapur-416001,KOLHAPUR,Maharashtra",918129827213,rcsmgmc.cprbloodbank@gmail.com,16.701443,74.227074
51,Late Balasaheb Datye - Lions Blood Bank,"5/468, Datye Mala, Lions Park,  Ichalkaranji, Tal-Hatkanangale, Kolhapur
,Kolhapur-416115,KOLHAPUR,Maharashtra",919218533789,lbbank89@gmail.com,16.681682,74.467741
52,Rajarshi Shahu Blood Bank,"Rotary Samaj Seva Centre, 253, K.E.Assembly Road, Kolhapur
,Kolhapur-416002,KOLHAPUR,Maharashtra",919826445566,rsbbkop@gmail.com,16.691308,74.244866
53,Mahatma Gandhi Hospital Blood Bank,"At Post - New Pargaon, TQ-Hatkanangale, Kolhapur,Kolhapur-416137,KOLHAPUR,Maharashtra",918103088692,mghbbnewpargaon@gmail.com,16.86221,74.240034
54,Annasaheb Galatge Lions Blood Bank,"Doctor&#39;s Colony, Gadhinglaj, Kolhapur,Kolhapur-416502,KOLHAPUR,Maharashtra",918324742736,annasahebg@gmail.com,16.186455,74.372559
55,Acharya Shree Tulsi Blood Bank ,"Gate No.1232 Sangli - Kolhapur Road, Jaysingpur Udgaon, Kolhapur
,Kolhapur-416101,KOLHAPUR,Maharashtra",919187341548,tulsiblood@rediffmail.com,16.785709,74.56459
56,Dr. D. Y. Patil Hospital Blood Bank,"Kadamwadi, Kolhapur,Kolhapur-416003,KOLHAPUR,Maharashtra",917416979091,dypihbt@yahoo.com,16.715186,74.256447
57,Arpan Blood Bank - Blood Component and Apheresis Centre Kolhapur,"1st Floor, Saroj Appartment, Subhash Road 1315, &#39;C&#39; Ward,  Opposite to Shramik Bhavan, Laxmipuri, Kolhapur,Kolhapur-416001,KOLHAPUR,Maharashtra",918187908005,babasahebaghav@gmail.com,19.189209,72.97706
58,Kolhapur Municipal Corporation Blood Bank,"C.T.S. 83 D-Ward, Near Kasba Gate Police, Chowky, Kolhapur
,Kolhapur-416002,KOLHAPUR,Maharashtra",918622229974,kmcbloodbank@ymail.com,16.698607,74.223891
59,Sanjeevan Blood Bank,"250/B/65  First Floor, Lucky Naresh Banglow, Opposite to Collector Office, Nagala Park, Kolhapur, 
,Kolhapur-416002,KOLHAPUR,Maharashtra",918337194709,ssfarakte@yahoo.in,16.706599,74.231346
60,Shri.R.R.Patil Shikashan Sheti sanshodhan Aani vikas sanstha Blood Bank,"M/s Adhar Blood Bank, 1st Floor, C.S. No. 16432 / 1, H No. 12/966, C/o. Dr. Dilip Joshi Hospital, Sambhaji Chowk, Rajaram Road, Ichalkaranji, Tal - Hatkanangle, Kolhapur,Kolhapur-416115,KOLHAPUR,Maharashtra",919445718716,adharbbi@gmail.com,16.680271,74.461733
61,Government Medical College General Hospital Blood Bank,"Blood Bank, Government Medical College & Hospital, Old Railway Station,  Gandhi Chowk, Latur,Latur-413512,LATUR,Maharashtra",918271906950,"bloodbankgmclatur@yahoo.co.in, csnrhmlatur@rediffmail.com",18.39451,76.578201
62,IRCS - Dr. Bhalchandra Blood Bank,"Red Cross Bhavan, Gandhi Market, Latur ,Latur-413512,LATUR,Maharashtra",918932722965,"ircslatur@gmail, bhalbloodbank@rediffmail.com",18.401208,76.580639
63,Smt. Saraswati Karad Blood Bank,"MIMSR Medical College and Y.C.R. Hospital, Vishwanath Puram,  Ambejogai Road, Latur,Latur-413512,LATUR,Maharashtra",919210787809,bloodbank@mimsr.edu.in,18.429485,76.577846
64,IRCS Nagappa Amberkhane Blood Bank,"Banshelki Road Near Nalegaon Railway Crossing Gate Udgir, Latur ,Latur-413517,LATUR,Maharashtra",918849738094,bloodbankudgir@yahoo.com,18.392306,77.106985
65,Arpan Blood Bank Latur,"H.No R-3-1030,  Old Sonawane Hospital, Near  Ashok Hotel, Main Road, Latur,Latur-413512,LATUR,Maharashtra",919690593524,balbhim.chavan@arpanbloodbank.org,18.408491,76.551573
66,Mauli Blood Bank,"Gayatri Hospital, Barshi Road, Latur ,Latur-413512,LATUR,Maharashtra",917183818079,maulibloodbanklatur@gmail.com,18.451173,73.89143
67,ESIC Model Hospital cum ODC Blood Bank,"Room No. 20/A, 1st Floor, ESIC Model Hospital cum ODC & PGIMSR, Central Road, M.I.D.C, Opposite to MIDC Police Station, Andheri (East), Mumbai ,Mumbai-400 093,MUMBAI,Maharashtra",917659750838,esicbloodbank.andheri93@gmail.com,19.118392,72.86724
68,Fortis Hospital Blood Bank,"Mulund Goregaon Link Road, Nahur , Mumbai ,Mumbai-400078,MUMBAI,Maharashtra",918419267608,bloodbank.mul@fortishealthcare.com,19.162122,72.942063
69,Masina Hospital Blood Bank,"Sant Savta Marg, Byculla (E) ,Mumbai-400027,MUMBAI,Maharashtra",918372031926,"bloodbankmasina@gmail.com, bloodbankmasina@rediffmail.com",18.974886,72.835711
70,N.  Wadia Maternity  Hospital Blood Bank,"Acharya Donde Marg, Parel, Mumbai,Mumbai-400012,MUMBAI,Maharashtra",918873280434,wadiabloodbank@gmail.com,19.003238,72.842837
71,West Coast Blood Bank,"Basement 101, Moon Building, 798, Mori Road, Mahim(W), Mumbai,Mumbai-400016,MUMBAI,Maharashtra",918471920619,westcoastbloodbank@gmail.com,19.042954,72.84073
72,Government Medical College Blood Bank Nagpur,"Model Blood Bank, 2nd Floor, Hospital Building, Government Medical College & Hospital, Nagpur  ,Nagpur-440003,NAGPUR,Maharashtra",918958487466,gmchbbngp@gmail.com,21.126097,79.097101
73,Indira Gandhi Medical College and Hospital Blood Bank,"IGMC Hospital, Central Avenue Road, Nagpur ,Nagpur-440018,NAGPUR,Maharashtra",919740319466,igmc@rediffmail.com,21.153917,79.092894
74,Daga Memorial Women Government Hospital Blood Bank,"Gandhibag, Nagpur,Nagpur-440002,NAGPUR,Maharashtra",919878679704,msdaga_WomenHosp@redifmail.com,21.151511,79.105434
75,Jeevan Jyoti Blood Bank and Component,"J P Chamber, Madhav Nagar, Dakshin Ambakshari Road  Nagpur,Nagpur-440010,NAGPUR,Maharashtra",918517882978,jjbb21@hotmail.com,21.123051,79.057149
76,Dr. Hegdewar Blood Bank,"2, Sitaram Smruti, West High Court Road, Laxmibhuvan Square, Audumbar Apartment, Dharmpeth, Nagpur ,Nagpur-440010,NAGPUR,Maharashtra",918203269780,hbbnagpur687@gmail.com,21.140579,79.060505
77,Sainath Blood Bank,"531,Jaiswal Building, Above R.K. Traders, Old shukrawari Road, Sakkardara Nagpur,Nagpur-440024,NAGPUR,Maharashtra",919368632364,sainathbloodbank@gmail.com,21.134294,79.076369
78,Ayush Blood Bank and component Lab,"9th Floor, A wing, 901-905, 910-912, Lokmat Building, Nagpur,Nagpur-440010,NAGPUR,Maharashtra",919228033051,ayush_bbc@rediffmail.com,21.135231,79.072978
79,Lifeline Blood Bank Components and Apherisis Centre Blood Bank,"Neeti Gaurav complex , 2nd Floor, Central Bazar Road, Lokmat Square, Ramdaspeth, Nagpur ,Nagpur-400010,NAGPUR,Maharashtra",919705150194,drwarbhe@gmail.com,21.138999,79.063093
80,Rainbow Blood Bank,"3rd Floor, 282, Rainbow Diagnostic Services Central Bazar Road, Ramdas Peth, Nagpur,Nagpur-440010,NAGPUR,Maharashtra",918625145073,rainbowbloodbank.nagpur@gmail.com,21.133584,79.072736
81,Indian Red Cross Society Blood Bank,"Parsi Anjuman Complex, Vazirabad, Nanded      ,Nanded-431602,NANDED,Maharashtra",918926116980,ircsnanded@gmail.com,17.399811,78.485456
82,Guru Gobindsinghji Blood Bank,"Geeta Bhavan 1 & 2 Floor, House No 3-1-366, Near Government, Opposite to Ayurvedic College, Bus Stand Road, Vazirabad, Nanded          ,Nanded-431601,NANDED,Maharashtra",919512328306,ggbloodbank@gmail.com,19.156029,77.309
83,Nanded Blood Bank,"Shivaji Nagar ,Opposite to Adhar Hospital, Nanded ,Nanded-431602,NANDED,Maharashtra",918506876388,nandedbloodbank@gmail.com,19.161264,77.304543
84,Hazur Saheb Blood Bank,"2nd Floor, Opposite to Bank of India, Sant Kripa Market, GG Road, Nanded ,Nanded-431601,NANDED,Maharashtra",917654749844,shs.bloodbanknanded@gmail.com,19.153093,77.318654
85,Civil Surgeon - District General Hospital Blood Bank,"Nandurbar, Railway Station Road Survey No.406, Civil Hospital Compound,  Sakri Road, Near Collector Office Nandurbar  ,Nandurbar-425412,NANDURBAR,Maharashtra",918869855773,"rmochndb@gmail.com, dponandurbar@mahasacs.org",21.33867,74.234768
86,Sahada Blood Bank - Shree Swami  Samartha Vaidyakiya  Shaikshanik and Sanshodhan Sanstha ,"C/o. 1st Floor, Shushrut Hospital, Khetiya Road, Survey 
No. 67/3, Plot No. 3, Sahada, Nandurbar,Nandurbar-425409,NANDURBAR,Maharashtra",917152447740,bb_shahada@yahoo.com,21.554798,74.472874
87,Jankalyan Rakta Pedhi,"Nandurbar,1st Floor, Vivekanand Hospital, Desaipura, Nandurbar ,Nandurbar-425412,NANDURBAR,Maharashtra",919296658766,jankalyanbbndb@gmail.com ,21.36433536,74.24463853
88,Malegaon Blood Bank,"2nd Floor, West End Complex, Satana Naka, Malegaon ,Malegaon-423203,NASHIK,Maharashtra",919846575349,"malegaonb@gmail.com, ",20.55474,74.524396
89,Seva Blood Bank,"Nilkanth Building, Satana Naka, Satana Road, Malegaon, Nashik,MALEGAON-423203,NASHIK,Maharashtra",918989889298,sevabloodbankmalegaon@gmail.com,20.552689,74.516643
90,Metro Blood Bank - District (Civil) Hospital Nashik,"District - Civil Hospital Blood Bank, Near Thakkar Bazaar,  Trimbak Naka, Nashik,Nashik-422001,NASHIK,Maharashtra",917714402005,"civilbloodbanknsk@gmail.com, ",19.996886,73.778198
91,Jankalyan Blood Bank,"3, Shree Nagar, Old Gangapur Naka, Gangapur Road, Nashik
,Nashik-422013,NASHIK,Maharashtra",917524441745,rssjan_nsk@rediffmail.com,20.008838,73.7702
92,Samta Blood Bank,"F-1, 1st Floor Suyojit Comercial Complex, Mumbai Agra Highway, Below Data Mastics, Mumbai Naka, Nashik 
,Nashik-422001,NASHIK,Maharashtra",917949158804,samtabloodbank@gmail.com,19.984791,73.782607
93,Shri Krishna Blood Bank,"Dr. Patange Hospital Building, Ajay Nagar Omerga, Omerga,  Osmanabad  ,Omerga-413606,OSMANABAD,Maharashtra",918407046607,dr.dbpatange@yahoo.com,17.83503,76.622149
94,"Civil Surgeon, General Hospital Blood Bank","Civil Hospital Osmanabad, Tqand, Osmanabad ,Osmanabad-413501,OSMANABAD,Maharashtra",919425318322,"bloodbankosmanabad@gmail.com, cs_osmanabad1@rediffmail.com",18.18077,76.034735
95,Civil Surgeon - District General Hospital Blood Bank,"Blood Bank Civil Surgeon, District General Hospital Blood Bank, Subhash Road, Parbhani
,Parbhani-414001,PARBHANI,Maharashtra",917223874502,bloodbankghp@gmail.com,19.271699,76.765032
96,Kanthak Sevabhavi Sanstha - New Life Blood  Bank,"Plot No 22, Survey No 389 and 394, Beside Gurudwara, Station Road, Parbhani ,Parbhani-431401,PARBHANI,Maharashtra",919623439489,newlifebloodbank@gmail.com,19.273124,76.782625
97,Indian Red Cross Society Blood Bank,"Indian Red Cross Society (IRCS), (Late Manikbai Chandulal Saraf) Blood Bank, Near Government Silver Jubilee Hospital, Patas Road, Baramati, Pune,Baramati-413102,PUNE,Maharashtra",917375172754,ircsbbbaramati@gmail.com,18.152597,74.574996
98,Sasoon Sarvopchar Hospital Blood Bank,"Ground Floor, Section 5, Opposite to Central Medical Stores, Station Road, Pune,Pune-411021,PUNE,Maharashtra",919488217233,bjmc.bloodbank@gmail.com,18.515846,73.858714
99,Jankalyan Raktapedhi Pune,"1003, Shukrawar Peth, Swargate - Saras Baugh Road, Near Natraj Hotel, Pune,Pune-411002,PUNE,Maharashtra",917512636887,janrakta@gmail.com,18.50092,73.857531
100,Indian Serological Institute Blood Bank,"21, Anand Baugh, Navi Peth, Near Vaikunth, Pune,Pune-411030,PUNE,Maharashtra",917786127789,isibloodbank@rediffmail.com,18.506291,73.84264
101,Akshay Blood Bank,"Survey No.10/1/3, Unnati Nagar, Bantar High School, Hadapsar, Pune,Pune-411028,PUNE,Maharashtra",918473218510,akshaybloodbankpune@gmail.com,18.47143,73.959674
102,Jehangir Hospital Blood Bank,"32, Sasoon Road, Pune ,Pune-411001,PUNE,Maharashtra",918392304985,bloodbank@jehangirhospital.com,18.530392,73.876808
103,Noble Hospital Blood Bank,"B-007, Basement C/o. Noble Hospital, 153 Magarpatta City Road, Hadapsar, Pune  ,Pune-411013,PUNE,Maharashtra",917101657317,"skrcorporate@yahoo.co.uk, noblebloodbank@yahoo.in",18.505035,73.927256
104,Pimpari Serological Institute Blood Bank,"Esteem Tower, opposite K.S.B. Pump, Pune-Mumbai Highway, Kharalwadi, Pimpari ,Pune-411018,PUNE,Maharashtra",919560591779,psibbpimpri@gmail.com,18.624322,73.807929
105,R.G Gholap Memorial Blood Bank,"Office No. 301, 3rd Floor Ashoka Centre, S. No - 47/14, Satara Road, Parvati, Pune,Pune-411009,PUNE,Maharashtra",918618491164,gholapbloodbank@gmail.com,18.487158,73.857098
106,District Civil Surgeon Blood Bank,"District Hospital Blood Bank, Civil Hospital Campus, Sea Face Road, Alibag  ,Alibag-402201,RAIGAD,Maharashtra",917349589580,bloodbankalibag@gmail.com,18.640782,72.871716
107,Kakasaheb Chitle Memorial Centre Sanchalit - Jankalyan Blood Bank,"C.S. No. 1651, Near Lokmanya Vyayamshala, Shiwaji Chowk, Mahad, Raigad,Mahad-402301,RAIGAD,Maharashtra",919819272287,jkrp_mahad@redifmail.com,18.082736,73.42265
108,Advanced Centre for Treatment Reasearch and Education in Cancer,"Owe Village, Sector 22, Plot No. 2, Kharghar, Navi Mumbai ,Navi Mumbai-410208,RAIGAD,Maharashtra",919790967324,transmed.dept@actrec.gov.in,19.065019,73.064507
109,M/s. Navi Mumbai Blood Bank,"Navi Mumbai Blood Bank, Vishwanath Bhavan, C-87, Sector 12, Kharghar, Navi Mumbai,Navi Mumbai-410 210,RAIGAD,Maharashtra",918683081635,navimumbaibb@gmail.com,19.034045,73.029533
110,Rotary Club New Panvel charitable Trust s Late Dr. B.V. Limaye Blood Bank,"Plot No-8, Sect.1, Khanda Colony, Mumbai Pune Road, New Panvel (W) ,Raigad-410206,RAIGAD,Maharashtra",917229932874,rotarybloodbank.newpanvel@gmail.com,19.008249,73.108321
111,Civil Surgeon - General Hospital Blood Bank,"Civil Hospital, Ratnagiri,Ratnagiri-415612,RATNAGIRI,Maharashtra",919753238952,bloodbank.ghr123@gmail.com,16.989126,73.298866
112,Shree Swami Samarth Blood Bank,"B.K.L.Walwalkar Hospital Diagnostic & Research Centre, Shree Kshetra Darvan, Chiplun, Ratnagiri,Ratnagiri-415606,RATNAGIRI,Maharashtra",917549320240,bloodbank@walawalkarhospital.com,17.399914,73.547448
113,Indian Red Cross Society Blood Bank,"Khareghat Road, Ratnagiri,Ratnagiri-415612,RATNAGIRI,Maharashtra",918360692869,redcrossratnagiri@rediffmail.com,17.019013,73.298977
114,Padmabhushan Vasantdada Patil Government Hospital Blood Bank,"Padmabhushan Vasantdada Patil Government Hospital , Blood Bank, Dr. Ambedkar Road, Sangli .                                         
,Sangli-416416,SANGLI,Maharashtra",917719758465,sanglicivilbb@gmail.com,16.852571,74.574678
115,Rajaram Bapu Blood Bank,"Islampur C.S. No. 99/1, Near Islampur Spiral CT-Scan,
Peth-Sangli Road
,Sangli-415409,SANGLI,Maharashtra",918375748304,rajarambapu.bloodbank@rediffmail.com,17.048399,74.251122
116,Vasantdada Patil Blood Bank and Haematology Research Centre,"AIP - Miraj, Mirasaheb Shopping Complex,  Opposite to City Police Station, Miraj, Sangli,Sangli-416410,SANGLI,Maharashtra",919916105223,svpbb1984@rediffmail.com,16.82132,74.649492
117,Smt. Anila Kantilal Kothari Blood Bank & Department of Hemato Oncology,"Dr. D. K. Gosavi Memorial, Shri Siddhivinayak Ganapati Cancer Hospital, Sangli - Miraj Road, Miraj,Sangli-416410,SANGLI,Maharashtra",918806842000,cancermiraj@gmail.com,16.833879,74.635364
118,Hindratna Prakashbapu Patil Blood Bank,"2nd Floor, Siddhivinayak Commercial Complex Guest House, Miraj Road, Near Tata Petrol Pump, Sangli
,Sangli-416416,SANGLI,Maharashtra",918139622508,hindratnabloodbank@gmail.com,16.8537,74.580099
119,Miraj Serological Institute Blood Bank,"S. No.795/A1, Dr. Bhalchandra Patil Hospital,  Zaribag Budhgaonkar Mala, Near Gulabrao Patil Medical College, Miraj 
,Sangli-416410,SANGLI,Maharashtra",918778313980,msibloodbank@gmail.com,16.828931,74.639399
120,Akshay Blood Bank,"Plot No. 1/7, Near Anand Nursing Home, 2nd Floor, Miraj Sangli Road,  Sangli,Sangli-416410,SANGLI,Maharashtra",918240880438,abbmiraj@gmail.com,16.838026,74.651827
121,Indian Red Cross Society Blood Bank - Shirgaonkar Blood Bank,"Opposite to Civil Hospital, Plot No. 49, City Survey No.601/7, Sangli,Sangli-416416,SANGLI,Maharashtra",917739241539,shirgaonkar_sangli@yahoo.co.in,16.853702,74.575077
122,Shree Basaveshwar Manav Vikas Gramin Sevabhavi Sanstha Blood Bank,"Arihant Galaxy, 1st Floor, C.S. NO- 1599, Opposite to Civil Hospital, Garpir Road, Sangli
,Sangli-416416,SANGLI,Maharashtra",919981096922,adarshbloodbank@gmail.com,16.842421,74.619929
123,Azad Panchi Group Charitable Trust Blood Bank,"Near Civil Hospital, Ganesh Nagar, 1st Lane, S. No. 1682, Sangli
,Sangli-416416,SANGLI,Maharashtra",918542993079,msibloodbank@gmail.com,16.844539,74.572891
124,S. S. Venutai Y. Chavan Sub-District Hospital Blood Bank Karad,"Plot No. 290/91, Budhwar Peth Station Road, Karad, Satara,Satara-415110,SATARA,Maharashtra",917439624759,mskarad@gmail.com,17.288048,74.186177
125,Civil Surgeon - Sarva Samanya Hospital Blood Bank,"Bazar Road, Satara,Satara-415001,SATARA,Maharashtra",918274354066,bbsknpsatara@gmail.com,17.691305,74.009424
126,Krishna Hospital and Medical Research Centre Blood Bank Karad,"Poona Bangalore (NH 4) Highway, Near Debhewadi Road, Karad, Satara,Satara-415110,SATARA,Maharashtra",918645150391,khbloodbank@yahoo.com,17.285065,74.185701
127,Instutute of Medical Science and Research Blood Bank and Blood Component Seperation Unit,"Shree Chatrapati Shivaji Education Societys, Instutute of Medical Science and Research Blood Bank and Blood Component Seperation Unit,  Vita Road, Vidyagiri, Mayani, Satatra,Satara-415102,SATARA,Maharashtra",918286271610,insrmyn05@rediffmail.com,17.431214,74.549364
128,M/s. Balaji Blood Bank,"M/s. MA. NA. Shri R.R. (AABA) Patil Shikshan Sheti Sanshodhan Aani Vikas Sansthas  Balaji Blood Bank, C.S.No - 467/8 A 1b/45, Jaldhara Building 2nd Floor, Sadar Bazar, Satara - 415002
,Satara-415002,SATARA,Maharashtra",917105618588,balajibbsatara@gmail.com,17.695093,74.010716
129,Akshay Blood Bank,"Akshay Medical Trust, Akshay Blood Bank, 506/22, Sadar Bazar, Near State Bank, Opposite to Nirmal Hotel, Satara,Satara-415002,SATARA,Maharashtra",917957944002,abbSatara@gmail.com,17.672028,74.021087
130,Mauli Blood Bank Satara,"529/b,  Parasnis Colony, Near Hotel Monark, Powai Naka Sadar Bazar, Satara ,Satara-415001,SATARA,Maharashtra",919755312256,maulibloodbank@gmail.com,17.686084,74.007955
131,Yashwantrao Chavan Blood Bank,"Phase 5, Super Market, 1st Floor Hall No. 2/1 Final Plot No. 432,433, Shaniwar Peth, Karad  ,Satara-415110,SATARA,Maharashtra",919212958572,ycbbkarad@gmail.com,17.275751,74.18181
132,Civil Surgeon - General Hospital Blood Bank,"Sindhudurg Oros, At Post - Oros, Kudal, Sindhudurga (Oros),Sindhudurga-416812,SINDHUDURG,Maharashtra",917619530628,orosbloodbank@gmail.com,16.12019,73.689563
133,"Cottage Hospital Blood Bank, Sawantwadi","Sub -District Cottage Hospital, Blood Bank, Sawantwadi, 
C-Sindhudurg,Sindhudurga-416510,SINDHUDURG,Maharashtra",919106941170,bloodbank.sdhsawantwadi@gmail.com,15.902781,73.823544
134,Dean Chatrapati Shivaji Maharaj Sarvopchar Hospital Blood Bank,"B-Block Ground Floor, Shri. Chatrapati Shivaji Maharaj Sarvopchar Hospital, Solapur, Maharashtra,Solapur-413003,SOLAPUR,Maharashtra",917361522356,"dr.g.a.pandit@gmail.com, bloodbanksolapur@gmail.com",17.659024,75.912826
135,"Dr. Hegdewar Rakta Pedhi Sanstha, Solapur","1st Floor, Sahyadri Shopping Centre Railway Lines, Solapur,Solapur-413001,SOLAPUR,Maharashtra",918841316114,hedgewar.raktapedhi@gmail.com,17.66391,75.900793
136,IMA - Sahakar Maharshi Shankarrao Mohite Patil Blood Bank,"804, Old Pandharpur Road, Ganeshnagar Akluj, Solapur,Solapur-413101,SOLAPUR,Maharashtra",918510026857,imabloodbank136@rediffmail.com,17.660169,75.906401
137,M. M. Patel Public Charitable Trust - Ashwini Rural Medical College and Hospital Blood Bank,"Kumbhari, Gat No. 261 and 262 , Akkalkot Road, Kumbhari, 
Tal.South Solapur. Dist. Solapur ,Solapur-413006,SOLAPUR,Maharashtra",919646347967,armchbb@gmail.com,17.644778,75.986234
138,Athar Minorities Social and Welfare Associations - Athar Blood Bank,"1st Floor, 410 Shukrawar Peth, Jamiya Complex, Near Jama Masjid, Solapur,Solapur-413002,SOLAPUR,Maharashtra",919119841669,"atharbloodbank@ymail.com,",17.676725,75.910238
139,Indian Red Cross Society - Smt. Gopabai Damani Blood Bank,"165 Railway Line, Red Cross Road, Dufferin Chowk, Solapur ,Solapur-413001,SOLAPUR,Maharashtra",918766539917,gopabaidamani@gmail.com,17.660077,75.906391
140,Indian Red Cross Society - Sarjubai Bansila Bajaj Blood Bank,"62/2/3/4, Bhakti Marg, Pandharpur, Solapur,Solapur-413304,SOLAPUR,Maharashtra",919575442316,bajajbloodbank@gmail.com,17.562936,75.265589
141,SIDDHESHWAR BLOOD BANK,"Kalyani Towers, 126 Siddheshwar Peth, Near Yashwantrao Hospital Behind civil court, Solapur ,Solapur-413003,SOLAPUR,Maharashtra",917223124218,siddheswarbloodbank@gmail.com,17.672075,75.904841
142,Tarapur Atomic Power Station Hospital Blood Bank,"TAPS Hospital Blood Bank, TAPS 1&2 (Anushri) Township Near Boisar, Palghar ,Palghar-401504,THANE,Maharashtra",918349579450,rmwankhede@npcil.co.in,19.813093,72.743519
143,Lokmanya TSSIA Blood Bank Thane,"Tssia House, Road No. P 26/T, Road-16, Next to Thane Janata Sahakari Bank, Behind the Petrol Pump, Wagle Estate, Thane (W),Thane-400604,THANE,Maharashtra",918126871878,sunilmundhe7@gmail.com,19.191526,72.95169
144,"District - Civil Surgeon, General Hospital Blood Bank Wardha","New Building, OPD 1st Floor General Hospital, Dr. Ambedkar Road, Near Jilha Parisad, Wardha,Wardha-442001,WARDHA,Maharashtra",919717880092,cswardha@rediffmail.com,20.737833,78.603162
145,Kasturba Health Society Blood Bank,"Sevagram, Department of Pathology, MGIMS and Kasturba Hospital,  Sevagram, Wardha,Wardha-442102,WARDHA,Maharashtra",919673168565,bloodbank@mgims.ac.in,20.739287,78.660927
146,Jawaharlal Nehru Medical College Blood Bank,"Savangi (Meghe), Paloti Road, Wardha,Wardha-442004,WARDHA,Maharashtra",919917265585,jnmcbloodbank@rediffmail.com,20.715824,78.575564
147,"Civil Surgeon, General Hospital Blood Bank Washim","General Hospital Blood Bank, Near Akola Naka,  Washim ,Washim-444505,WASHIM,Maharashtra",917562982975,bb328@rediffmail.com,20.12259,77.127893
148,Sau Kantadevi Dale Blood Bank,"Maa Ganga Memorial Baheti Hospital, Akola Naka, Washim ,Washim-444505,WASHIM,Maharashtra",917984587386,dr.narayandale@gmail.com,20.105396,77.143122
149,Shri Vasantrao Naik Blood Bank ,"Government Medical College and Hospital, Yavatmal,Yavatmal-445001,YAVATMAL,Maharashtra",918562312216,"deanvngmc@rediffmail.com, bloodbankvngmc@gmail.com",20.39524,78.118668
150,Satyashanti Blood Bank,"2nd Floor, Satyashanti Hospital, Opposite to Bus Stand, Pusad,Yavatmal-445204,YAVATMAL,Maharashtra",918572887427,satyashanti@rediffmail.com,19.910776,77.569957
151,Aishwarya Blood Bank,"Survey No.3/2, Godhani Road, Gurunanak Nagar, Near Amolakshand College, Mouza, Umarsara, Yavatmal,Yavatmal-445001,YAVATMAL,Maharashtra",919370189809,bhongade@nagpur.dot.net.in ,20.389322,78.118544
152,Ekneel Blood Bank,"Near City Centre, Datta Chowk,Yavatmal-445001,YAVATMAL,Maharashtra",917895028639,ekneelbloodbank@rediffmail.com,20.389322,78.118544
